ORBCOMM FM24            
1 25478U 98053D   25232.70143903  .00000690  00000+0  27140-3 0  9993
2 25478  45.0091 323.1785 0004068 208.6469 151.4156 14.38224400406730
ORBCOMM FM25            
1 25479U 98053E   25234.48011171  .00000635  00000+0  25346-3 0  9997
2 25479  45.0078 313.0234 0006606 221.9114 138.1230 14.38198432407289
ORBCOMM FM26            
1 25480U 98053F   25234.46588323  .00000509  00000+0  21646-3 0  9994
2 25480  45.0076 310.0305 0008395 234.4824 125.5242 14.37237444407187
ORBCOMM FM27            
1 25481U 98053G   25234.53585403  .00000646  00000+0  25696-3 0  9990
2 25481  45.0063 312.9375 0002908 228.2054 131.8546 14.38229831407226
ORBCOMM FM28            
1 25482U 98053H   25234.42619532  .00000512  00000+0  21250-3 0  9994
2 25482  45.0044 250.8654 0007075 271.3489  88.6549 14.38400067407894
ORBCOMM FM30            
1 25980U 99065A   25234.17031748  .00000635  00000+0  25758-3 0  9993
2 25980  45.0308 137.3698 0007802 341.5354  18.5210 14.37402936343944
ORBCOMM FM31            
1 25981U 99065B   25234.21594621  .00000666  00000+0  26849-3 0  9999
2 25981  45.0224 130.6270 0005129   3.2129 356.8751 14.37339005343502
ORBCOMM FM32            
1 25982U 99065C   25234.09765624  .00000620  00000+0  25770-3 0  9991
2 25982  45.0151 148.2089 0007660 356.3968   3.6823 14.36387709344073
